NORAD_CAT_ID,OBJECT_NAME,OBJECT_TYPE,EPOCH,MEAN_MOTION,ECCENTRICITY,INCLINATION,RA_OF_ASC_NODE,ARG_OF_PERICENTER,MEAN_ANOMALY,BSTAR,MEAN_MOTION_DOT,MEAN_MOTION_DDOT,TLE_LINE0,TLE_LINE1,TLE_LINE2,SEMIMAJOR_AXIS,PERIOD,APOGEE,PERIGEE,DECAYED
54093.0,STARLINK-5213,PAYLOAD,2022-12-09 16:00:00,15.50069955,9.940000000000004e-05,53.2173,260.9415,89.5266,79.8655,-0.0049833,-0.00275356,0.0,0 STARLINK-5213,1 54093U 22136AU  22343.66667824 -.00275356  00000-0 -49833-2 0  9993,2 54093  53.2173 260.9415 0000994  89.5266  79.8655 15.50069955  8361,6794.659000000002,92.899,417.199,415.848,0.0
54093.0,STARLINK-5213,PAYLOAD,2022-12-10 00:00:00,15.49949181,0.0001167,53.2139,259.3555,98.9483,131.4503,-0.00021982,-0.00012935,0.0,0 STARLINK-5213,1 54093U 22136AU  22344.00001157 -.00012935  00000-0 -21982-3 0  9991,2 54093  53.2139 259.3555 0001167  98.9483 131.4503 15.49949181  8417,6795.012,92.906,417.67,416.084,0.0
54093.0,STARLINK-5213,PAYLOAD,2022-12-10 14:00:01,15.50055962,9.25e-05,53.2156,256.5629,111.8212,135.2702,-0.010133,-0.00540759,0.0,0 STARLINK-5213,1 54093U 22136AU  22344.58334491 -.00540759  00000-0 -10133-1 0  9998,2 54093  53.2156 256.5629 0000925 111.8212 135.2702 15.50055962  1304,6794.7,92.9,417.193,415.936,0.0
54093.0,STARLINK-5213,PAYLOAD,2022-12-10 16:00:00,15.49925744,9.56e-05,53.2156,256.1637,115.7101,236.6499,-0.0081105,-0.00436619,0.0,0 STARLINK-5213,1 54093U 22136AU  22344.66667824 -.00436619  00000-0 -81105-2 0  9993,2 54093  53.2156 256.1637 0000956 115.7101 236.6499 15.49925744  8525,6795.08,92.908,417.595,416.295,0.0
54093.0,STARLINK-5213,PAYLOAD,2022-12-10 22:00:00,15.49562492,0.0001022,53.2172,254.968,99.8795,208.2537,-0.0081704,-0.00434343,0.0,0 STARLINK-5213,1 54093U 22136AU  22344.91667824 -.00434343  00000-0 -81704-2 0  9998,2 54093  53.2172 254.9680 0001022  99.8795 208.2537 15.49562492  1307,6796.142,92.929,418.702,417.312,0.0
54093.0,STARLINK-5213,PAYLOAD,2022-12-11 08:00:01,15.490968400000002,0.0001185,53.2172,252.9784,78.6697,34.9088,-0.022659,-0.01144674,0.0,0 STARLINK-5213,1 54093U 22136AU  22345.33335648 -.01144674  00000-0 -22659-1 0  9990,2 54093  53.2172 252.9784 0001185  78.6697  34.9088 15.49096840  8622,6797.504,92.957,420.174,418.56300000000016,0.0
54093.0,STARLINK-5213,PAYLOAD,2022-12-11 14:00:01,15.48484453,0.0001065,53.2174,251.7843,95.4063,332.8023,-0.02309,-0.01141722,0.0,0 STARLINK-5213,1 54093U 22136AU  22345.58334491 -.01141722  00000-0 -23090-1 0  9993,2 54093  53.2174 251.7843 0001065  95.4063 332.8023 15.48484453  1305,6799.295999999999,92.994,421.885,420.437,0.0
54093.0,STARLINK-5213,PAYLOAD,2022-12-11 22:00:01,15.47671882,0.0001227,53.2174,250.1965,95.8237,31.1832,-0.023795,-0.01143358,0.0,0 STARLINK-5213,1 54093U 22136AU  22345.91668981 -.01143358  00000-0 -23795-1 0  9993,2 54093  53.2174 250.1965 0001227  95.8237  31.1832 15.47671882  1300,6801.676,93.043,424.375,422.706,0.0
54093.0,STARLINK-5213,PAYLOAD,2022-12-12 08:00:01,15.46657063,0.000118,53.2172,248.2136,103.0357,185.9493,-0.024744,-0.01147206,0.0,0 STARLINK-5213,1 54093U 22136AU  22346.33334491 -.01147206  00000-0 -24744-1 0  9997,2 54093  53.2172 248.2136 0001180 103.0357 185.9493 15.46657063  8783,6804.65,93.104,427.318,425.713,0.0
54093.0,STARLINK-5213,PAYLOAD,2022-12-12 14:00:01,15.4604334,0.0001286,53.2174,247.0238,106.6447,134.835,-0.025123,-0.01140841,0.0,0 STARLINK-5213,1 54093U 22136AU  22346.58334491 -.01140841  00000-0 -25123-1 0  9994,2 54093  53.2174 247.0238 0001286 106.6447 134.8350 15.46043340  1304,6806.451,93.141,429.191,427.441,0.0
54093.0,STARLINK-5213,PAYLOAD,2022-12-12 22:00:00,15.45242288,0.0001304,53.2168,245.4427,117.1177,180.156,-0.026257,-0.01158193,0.0,0 STARLINK-5213,1 54093U 22136AU  22346.91667824 -.01158193  00000-0 -26257-1 0  9998,2 54093  53.2168 245.4427 0001304 117.1177 180.1560 15.45242288  1305,6808.803000000001,93.189,431.556,429.78,0.0
54093.0,STARLINK-5213,PAYLOAD,2022-12-13 06:00:00,15.44417523,0.0001042,53.2173,243.8618,100.312,251.7905,-0.026609,-0.01142332,0.0,0 STARLINK-5213,1 54093U 22136AU  22347.25001157 -.01142332  00000-0 -26609-1 0  9996,2 54093  53.2173 243.8618 0001042 100.3120 251.7905 15.44417523  8924,6811.227,93.239,433.802,432.382,0.0
54093.0,STARLINK-5213,PAYLOAD,2022-12-13 14:00:01,15.43601775,0.000108,53.2173,242.281,98.2819,307.6686,-0.027311,-0.0114045,0.0,0 STARLINK-5213,1 54093U 22136AU  22347.58334491 -.01140450  00000-0 -27311-1 0  9992,2 54093  53.2173 242.2810 0001080  98.2819 307.6686 15.43601775  1308,6813.627,93.288,436.227,434.756,0.0
54093.0,STARLINK-5213,PAYLOAD,2022-12-13 20:00:01,15.42993845,0.0001095999999999,53.2177,241.0987,97.9578,257.7338,-0.027968,-0.01143715,0.0,0 STARLINK-5213,1 54093U 22136AU  22347.83334491 -.01143715  00000-0 -27968-1 0  9995,2 54093  53.2177 241.0987 0001096  97.9578 257.7338 15.42993845  9015,6815.416,93.325,438.028,436.534,0.0
54093.0,STARLINK-5213,PAYLOAD,2022-12-14 14:00:01,15.41172288,0.0001281999999999,53.2169,237.5563,89.4816,112.1331,-0.030109,-0.01156801,0.0,0 STARLINK-5213,1 54093U 22136AU  22348.58334491 -.01156801  00000-0 -30109-1 0  9999,2 54093  53.2169 237.5563 0001282  89.4816 112.1331 15.41172288  1304,6820.785,93.435,443.525,441.776,0.0
54093.0,STARLINK-5213,PAYLOAD,2022-12-14 16:00:01,15.40956075,0.0001190999999999,53.2174,237.1627,94.6257,209.6343,-0.029791,-0.01138045,0.0,0 STARLINK-5213,1 54093U 22136AU  22348.66668981 -.01138045  00000-0 -29791-1 0  9997,2 54093  53.2174 237.1627 0001191  94.6257 209.6343 15.40956075  9141,6821.4230000000025,93.448,444.101,442.476,0.0
54093.0,STARLINK-5213,PAYLOAD,2022-12-14 22:00:00,15.40364041,0.0001388,53.217,235.9861,113.0016,138.5436,-0.03112,-0.01163227,0.0,0 STARLINK-5213,1 54093U 22136AU  22348.91667824 -.01163227  00000-0 -31120-1 0  9999,2 54093  53.2170 235.9861 0001388 113.0016 138.5436 15.40364041  1309,6823.170999999999,93.484,445.983,444.089,0.0
54093.0,STARLINK-5213,PAYLOAD,2022-12-15 14:00:01,15.38717591,0.0001125,53.2173,232.8474,106.1362,242.3541,-0.032049,-0.01136772,0.0,0 STARLINK-5213,1 54093U 22136AU  22349.58334491 -.01136772  00000-0 -32049-1 0  9990,2 54093  53.2173 232.8474 0001125 106.1362 242.3541 15.38717591  1304,6828.0369999999975,93.584,450.671,449.134,0.0
54093.0,STARLINK-5213,PAYLOAD,2022-12-15 16:00:00,15.38515979,0.0001205,53.2176,232.4558,96.8261,353.5051,-0.032324,-0.01138779,0.0,0 STARLINK-5213,1 54093U 22136AU  22349.66667824 -.01138779  00000-0 -32324-1 0  9993,2 54093  53.2176 232.4558 0001205  96.8261 353.5051 15.38515979  9291,6828.634,93.597,451.322,449.676,0.0
54093.0,STARLINK-5213,PAYLOAD,2022-12-15 22:00:00,15.37906827,0.000112,53.2175,231.2836,94.7183,300.7704,-0.033043,-0.01140852,0.0,0 STARLINK-5213,1 54093U 22136AU  22349.91667824 -.01140852  00000-0 -33043-1 0  9995,2 54093  53.2175 231.2836 0001120  94.7183 300.7704 15.37906827  1300,6830.437,93.634,453.067,451.537,0.0
54093.0,STARLINK-5213,PAYLOAD,2022-12-16 14:00:01,15.36279202,0.0001221,53.2171,228.1573,91.088,35.4697,-0.034861,-0.01141433,0.0,0 STARLINK-5213,1 54093U 22136AU  22350.58334491 -.01141433  00000-0 -34861-1 0  9996,2 54093  53.2171 228.1573 0001221  91.0880  35.4697 15.36279202  1307,6835.261,93.733,457.96,456.291,0.0
54093.0,STARLINK-5213,PAYLOAD,2022-12-16 16:00:00,15.3607521,0.0001355,53.2174,227.7669,97.2367,130.4292,-0.034994,-0.01138548,0.0,0 STARLINK-5213,1 54093U 22136AU  22350.66667824 -.01138548  00000-0 -34994-1 0  9994,2 54093  53.2174 227.7669 0001355  97.2367 130.4292 15.36075210  9440,6835.866,93.745,458.657,456.804,0.0
54093.0,STARLINK-5213,PAYLOAD,2022-12-16 22:00:00,15.3546386,0.0001351999999999,53.2173,226.5988,86.868,83.7565,-0.035676,-0.01138087,0.0,0 STARLINK-5213,1 54093U 22136AU  22350.91667824 -.01138087  00000-0 -35676-1 0  9998,2 54093  53.2173 226.5988 0001352  86.8680  83.7565 15.35463860  1300,6837.68,93.783,460.47,458.621,0.0
54093.0,STARLINK-5213,PAYLOAD,2022-12-17 14:00:01,15.33845785,0.0001335,53.2168,223.4842,100.6644,155.221,-0.038054,-0.01151302,0.0,0 STARLINK-5213,1 54093U 22136AU  22351.58335648 -.01151302  00000-0 -38054-1 0  9996,2 54093  53.2168 223.4842 0001335 100.6644 155.2210 15.33845785  1305,6842.488,93.882,465.266,463.44,0.0
54093.0,STARLINK-5213,PAYLOAD,2022-12-17 22:00:00,15.33030121,0.000138,53.2168,221.9319,118.645,178.3099,-0.038941,-0.01148257,0.0,0 STARLINK-5213,1 54093U 22136AU  22351.91667824 -.01148257  00000-0 -38941-1 0  9997,2 54093  53.2168 221.9319 0001380 118.6450 178.3099 15.33030121  1302,6844.915,93.932,467.724,465.835,0.0
54093.0,STARLINK-5213,PAYLOAD,2022-12-18 14:00:01,15.31393433,0.0001306,53.2172,218.8276,123.3438,252.95,-0.040474,-0.01134628,0.0,0 STARLINK-5213,1 54093U 22136AU  22352.58334491 -.01134628  00000-0 -40474-1 0  9993,2 54093  53.2172 218.8276 0001306 123.3438 252.9500 15.31393433  9749,6849.791,94.032,472.551,470.761,0.0
54093.0,STARLINK-5213,PAYLOAD,2022-12-18 22:00:00,15.30583296,0.0001187,53.2173,217.2814,97.9929,316.4985,-0.041736,-0.01140132,0.0,0 STARLINK-5213,1 54093U 22136AU  22352.91667824 -.01140132  00000-0 -41736-1 0  9998,2 54093  53.2173 217.2814 0001187  97.9929 316.4985 15.30583296  1303,6852.208000000001,94.082,474.886,473.259,0.0
54093.0,STARLINK-5213,PAYLOAD,2022-12-19 08:00:01,15.2956574,0.0001374,53.2175,215.3479,101.8124,89.0547,-0.043036,-0.01139109,0.0,0 STARLINK-5213,1 54093U 22136AU  22353.33334491 -.01139109  00000-0 -43036-1 0  9993,2 54093  53.2175 215.3479 0001374 101.8124  89.0547 15.29565740  9858,6855.246999999999,94.144,478.05300000000005,476.17,0.0
54093.0,STARLINK-5213,PAYLOAD,2022-12-19 12:00:00,15.29155177,0.0001134,53.2173,214.575,106.8307,282.1605,-0.043354,-0.01133485,0.0,0 STARLINK-5213,1 54093U 22136AU  22353.50001157 -.01133485  00000-0 -43354-1 0  9996,2 54093  53.2173 214.5750 0001134 106.8307 282.1605 15.29155177  1303,6856.473000000001,94.17,479.116,477.561,0.0
